{
  "norad_id": 63126,
  "name": "SUPERVIEW NEO-1 04",
  "history": [
    {
      "epoch": "2026-03-27T17:21:01.772352",
      "apogee_km": 502.5110580073979,
      "perigee_km": 500.0198887837314,
      "latitude_deg": 12.610161318581985,
      "longitude_deg": 106.00196928018704,
      "semi_major_axis_km": 6879.402473395564,
      "eccentricity": 0.00018106,
      "inclination_deg": 97.3424,
      "raan_deg": 203.1637,
      "arg_perigee_deg": 156.9248,
      "mean_anomaly_deg": 203.2069,
      "mean_motion_rev_day": 15.21516564
    }
  ]
}